#dP2021  5  5  0  0  0.00000000      96 __u+U ITR00 EXT  IAC
## 2156 259200.00000000   900.00000000 59339 0.0000000000000
+  116   C06C07C08C09C10C11C12C13C14C16C19C20C21C22C23C24C25
+        C26C27C28C29C30C32C33C34C35C36C37C38C39C40C41C42C43
+        C44C45C46E01E02E03E04E05E07E08E09E11E12E13E14E15E18
+        E19E21E24E25E26E27E30E31E33E36G01G02G03G04G05G06G07
+        G08G09G10G12G13G14G15G16G17G18G19G20G21G22G23G24G25
+        G26G27G28G29G30G31G32J01J02J03R01R02R03R04R05R07R08
+        R09R11R12R13R14R15R16R17R18R19R20R21R22R24  0  0  0
++         9  9  8  7 10  8  8  9  8  8  9  9  7  7  9  9 10
++         9 10 10  8  9  7  9  8  7 10  8  9 10 10  9  8  8
++         8  9 10  8  8  8  7  9  8  7  8  7  7  6  7  8  8
++         7  8  8  8  6  9  7  7  7  7  8  7  8  8  7  8  7
++         7  7  8  8  7  8  7  7  8  8  9  8  7  9  8  7  7
++         7  8  8  8  6  9  7 10  8  8  9  7  8  9  8  8  8
++        10  7  8  9  7  9  9  9 10  9 10  8 10  7  0  0  0
%c M  cc GPS ccc cccc cccc cccc cccc ccccc ccccc ccccc ccccc
%c cc cc ccc ccc cccc cccc cccc cccc ccccc ccccc ccccc ccccc
%f  0.0000000  0.000000000  0.00000000000  0.000000000000000
%f  0.0000000  0.000000000  0.00000000000  0.000000000000000
%i    0    0    0    0      0      0      0      0         0
%i    0    0    0    0      0      0      0      0         0
/* IAC                                ULTRA-RAPID PREDICTION
/* S/V CLOCKS ARE ALIGNED TO GNSS TIME                      
/* G:C1WC2W R:C1PC2P E:C1XC5X C:C2IC6I J:C1CC2S             
/* PCV:IGS14_2148 OL/AL:FES2004  NONE     YN ORB:CoN CLK:CoN
*  2021 05 05  6 45  0.00000000
PC06 -10753.519520  22195.138554 -33691.341307    349.853891
PC07 -24235.703719  29880.432313  16898.020633   -189.657508
PC08 -11662.584826  37602.787235  15701.230313   -890.329361
PC09   4749.682993  29856.783216 -28906.280136    546.855465
PC10  -9586.270260  30950.396001  26969.430347    -47.065282
PC11 -22951.916696 -10241.682864  12145.172054    322.790981
PC12 -17893.068522 -20726.003166  -5318.552613    897.475181
PC13  -3693.778598  42042.760918   2875.939046    248.361508
PC14 -25299.288004    118.883654  11740.628310    645.948608
PC16  -6700.019616  24094.401736 -33788.657533   -819.906072
PC19  26796.898338  -7343.022394  -2690.425187    823.203591
PC20  20849.328191   5694.447955 -17648.988202   -931.134671
PC21  -2014.851273 -16013.623497  22791.127479   -944.346908
PC22  17443.871583 -16484.730540  14274.803750   -959.532084
PC23 -11251.490914  24002.934059  -8714.592233   -900.227237
PC24 -12296.617364 -14015.730080 -20764.464441   -838.335624
PC25 -16581.430472   8309.488163 -20861.666352   -921.975656
PC26  -1983.775237 -26259.043785  -9192.118734    911.510856
PC27  10435.734264  22023.143664  13555.006202    526.482622
PC28  -7404.606745  14431.515319  22707.256281    -78.217963
PC29  20899.451694    793.584647 -18482.289083    387.979899
PC30  22544.031863  16151.209725  -2990.550411    465.408065
PC32   2165.068927  15980.619238 -22751.886084   -937.772311
PC33 -26752.646519   7385.776223   2820.504500   -940.480049
PC34 -22729.012813 -15795.167244   3660.329748   -680.635551
PC35   7235.497926 -14529.094883 -22711.952572   -295.598380
PC36  16789.179726  -7497.882608  21014.773552   -727.858875
PC37    760.434351  26613.009379   8404.484467   -900.093369
PC38  -9349.610499  39706.293784  10937.723977    146.654405
PC39  -2234.048313  25725.211296 -33282.111755     30.839389
PC40 -17690.759193  26674.269499  27389.327072    157.825824
PC41 -17656.054061  16448.796247 -13963.957238   -945.247162
PC42 -20278.129463  -6301.754045  18145.746588   -917.612211
PC43 -21204.051007  -1324.304675  18097.629574   -715.993605
PC44 -10957.146331 -21740.323706 -13684.382793    171.911676
PC45  11105.998812 -24081.979972   8660.771509    431.747835
PC46  12649.184613  13040.073186  21195.497016    285.400003
PE01  22456.220297 -14707.784337  12465.335123  -1101.152393
PE02 -22456.028878  14816.057529 -12366.104410    216.887086
PE03 -26519.754474   4837.756125 -12205.357769   -427.494650
PE04  10078.457897 -15211.217003  23319.228839   -764.279571
PE05 -27644.091186  -8540.717428   6250.064962   -283.474156
PE07  12657.971900  16778.374828 -20835.368916   -533.872608
PE08  -9616.568267  15223.674667 -23483.519905   6007.118151
PE09 -12900.074014 -16571.335182  20863.948330   5678.395591
PE11 -11058.076885 -27470.271595   -118.190058   6018.198073
PE12   3215.951644 -23314.362847 -17968.989482   5226.305084
PE13  10891.666198  27511.485600    537.778725    415.961794
PE14   9644.564270 -18179.817776 -24888.298492  -1420.169924
PE15  -3077.945450  23298.003055  17994.823947    815.949755
PE18   1080.353249  16394.323348  17622.556861  -1554.207741
PE19  27542.319322  -3261.891210  10352.006348    269.044691
PE21  17562.779130   3417.630947  23575.618277   -663.127171
PE24  -1605.069631 -20775.080939 -21029.037224   -883.204816
PE25 -17456.478844  -3609.393677 -23629.073981   -532.888995
PE26  18543.323289  14811.497584 -17685.887222   1847.013463
PE27   2336.724790  20295.965219  21422.149025    -25.629481
PE30 -14908.632112  24911.835992   5797.330122   2970.828181
PE31  14154.853912 -25119.390939  -6686.665501   -480.839798
PE33  15195.030463  -5399.532238 -24818.787484   -468.255297
PE36 -18425.518677 -15526.474597  17203.780924   -202.819776
PG01 -13970.971256   4453.160364  21870.776269    698.008650
PG02  13463.659319  19232.268760 -11718.934478   -601.563855
PG03 -22350.633190  11254.455290   8647.889586   -155.378917
PG04 -22986.224681    971.002087 -13315.126132   -194.963217
PG05  17926.065752   2399.037470 -19666.244097    -41.025991
PG06   6184.838324  25699.478168  -2185.444989     12.822097
PG07  -8530.320745  18583.226551 -16330.703093    141.931821
PG08 -25775.730555  -5145.698013   4819.503223    -20.018503
PG09 -14745.776883   9898.031249 -19816.845451   -343.498445
PG10   6341.387093 -20067.093175  16155.834358   -115.632209
PG12  22860.999108  -7988.902553  10486.263574    -36.841406
PG13  22856.344942  13490.812856  -2347.747354    128.137999
PG14  -7874.019896  20017.828971  15553.273667     89.717212
PG15  26176.256979   2538.840951   4518.364479   -151.562765
PG16 -14745.414683  -7226.990137 -21214.783951   -320.222492
PG17   1742.725169  16236.991799  21372.330616    437.330265
PG18   6259.025461 -21647.553475 -14017.684383    351.023150
PG19  10985.514077  17491.326342  16474.922571     -4.104015
PG20  20998.985046 -11124.607898 -11534.600680    522.501476
PG21 -16496.306791  -3869.717713  21270.869173    115.903615
PG22 -20468.540394   3552.040876  16634.363092   -621.996198
PG23  15692.013896 -20330.232024   6657.176801    109.145376
PG24  16144.529981    986.912426  20871.019841     57.563294
PG25  19679.708509 -17603.920276   -814.564069    131.318945
PG26  -7226.350595 -14327.111483 -21191.410725     81.186035
PG27 -22742.268102 -12651.933273  -6389.936749   -124.624144
PG28  -3710.446260  18608.388969  19220.643052    576.302354
PG29  15171.132266  -8083.292160 -20308.826312   -341.667436
PG30     34.577603  25854.968129  -5455.585455   -421.922100
PG31  -7698.510198 -24614.706793  -5306.382848   -115.489281
PG32  -5023.883735 -16760.245698  20141.548613     21.678769
PJ01 -35065.439417  16610.850841 -11826.488634   -374.373899
PJ02 -25753.571081  32853.902566  -1841.847700      7.234610
PJ03 -26446.720272  21980.538936  29471.892030     -4.754655
PR01 -23769.441562   -542.407792   9226.290873     78.941598
PR02 -21211.315865   8407.885958 -11416.943157    477.382123
PR03  -5344.951256  11425.463912 -22130.646336     35.374766
PR04  13303.721960   7721.991850 -20313.755790     85.375241
PR05  24483.167263    -89.263942  -7104.841035     71.153126
PR07   4516.937965 -11420.906178  22393.333958    -42.511950
PR08 -13380.240593  -7834.737630  20320.690312    -58.858673
PR09  13243.776850 -18404.353267  11771.693355     -8.709170
PR11  -3668.821908 -16146.023774 -19399.400631     -2.267945
PR12 -12115.085901   1726.295952 -22360.248940    226.332674
PR13 -13182.908006  17972.261258 -12422.073294    -54.327890
PR14  -6505.548264  24017.970677   5585.668634     63.906578
PR15   3821.174878  15845.816968  19637.515271    103.995581
PR16  12452.820085  -2874.949616  22029.039651    -14.699765
PR17   4433.521594  18336.416433  17190.951848    421.401392
PR18  14808.847763  20633.135326   2029.243006     75.421113
PR19  17131.230961  13096.544164 -13627.881090   -142.461799
PR20   9254.539439  -4831.392513 -23268.299393    -48.544640
PR21  -5290.288009 -18824.180963 -16373.096973   -206.632977
PR22 -15187.162698 -20541.790634   -940.986900   -111.179250
PR24  -9115.473069   5878.201966  23099.501374     41.422214
EOF
